{
  "norad_id": 57135,
  "name": "STARLINK-6127",
  "history": [
    {
      "epoch": "2026-03-28T20:54:54.851616",
      "apogee_km": 486.488277247774,
      "perigee_km": 484.6242354332162,
      "latitude_deg": 28.093831557392242,
      "longitude_deg": -22.839053760049865,
      "semi_major_axis_km": 6863.693256340494,
      "eccentricity": 0.00013579,
      "inclination_deg": 43.0015,
      "raan_deg": 154.4449,
      "arg_perigee_deg": 276.1336,
      "mean_anomaly_deg": 83.936,
      "mean_motion_rev_day": 15.26743088
    }
  ]
}